ONEWEB-0406             
1 50486U 21132T   26109.09068047  .00000136  00000+0  31170-3 0  9998
2 50486  87.9209 347.2117 0001326  97.0145 263.1138 13.18687605213839
ONEWEB-0407             
1 50487U 21132U   26109.08407287  .00000100  00000+0  22084-3 0  9996
2 50487  87.9221 347.2003 0001964  79.5185 280.6168 13.18684447213776
ONEWEB-0409             
1 50488U 21132V   26109.19980990 -.00000466  00000+0 -13514-2 0  9990
2 50488  87.8922  32.7780 0001575  80.6026 279.5280 13.11417137207854
ONEWEB-0412             
1 50489U 21132W   26109.07252737  .00000101  00000+0  22321-3 0  9990
2 50489  87.9208 347.2138 0002060  86.4374 273.6994 13.18684936213869
ONEWEB-0413             
1 50490U 21132X   26109.07747891  .00000097  00000+0  21337-3 0  9992
2 50490  87.9206 347.2152 0002059  82.6475 277.4891 13.18684782213804
ONEWEB-0414             
1 50491U 21132Y   26109.06263275  .00000259  00000+0  62512-3 0  9991
2 50491  87.9221 347.1938 0001859  86.8530 273.2815 13.18686205213833
ONEWEB-0417             
1 50492U 21132Z   26109.07087653  .00000177  00000+0  41621-3 0  9994
2 50492  87.9207 347.2170 0001569  85.5136 274.6175 13.18684697213818
ONEWEB-0418             
1 50493U 21132AA  26109.08062747  .00000123  00000+0  27803-3 0  9990
2 50493  87.9218 347.2088 0001431  89.5046 270.6250 13.18688021213872
ONEWEB-0419             
1 50494U 21132AB  26109.09890484  .00000046  00000+0  85215-4 0  9995
2 50494  87.9218 347.2050 0001481  77.3640 282.7658 13.18686527213798
ONEWEB-0420             
1 50495U 21132AC  26109.06427088 -.00000065  00000+0 -19781-3 0  9996
2 50495  87.9213 347.2198 0001951  77.6656 282.4694 13.18686495213789
ONEWEB-0421             
1 50496U 21132AD  26109.13356632  .00000114  00000+0  25526-3 0  9998
2 50496  87.9214 347.2013 0001921  92.9690 267.1662 13.18685700213831
ONEWEB-0424             
1 50497U 21132AE  26109.09396983  .00000085  00000+0  18323-3 0  9991
2 50497  87.9216 347.2052 0001507  72.3167 287.8129 13.18686110213853
ONEWEB-0426             
1 50498U 21132AF  26109.13022065  .00000091  00000+0  19696-3 0  9995
2 50498  87.9216 347.1899 0001683 106.3152 253.8165 13.18690390213802
ONEWEB-0427             
1 50499U 21132AG  26109.09231896  .00000101  00000+0  22233-3 0  9998
2 50499  87.9217 347.1844 0001554  86.8358 273.2952 13.18684280213824
ONEWEB-0429             
1 50500U 21132AH  26109.07913078  .00000098  00000+0  21561-3 0  9996
2 50500  87.9211 347.2164 0001859  79.2170 280.9172 13.18686437213794
ONEWEB-0430             
1 50501U 21132AJ  26109.06756937  .00000276  00000+0  66837-3 0  9998
2 50501  87.9210 347.2167 0001780  73.8620 286.2708 13.18689198213836
