[{"OBJECT_NAME":"ONEWEB-0406","OBJECT_ID":"2021-132T","EPOCH":"2026-04-19T02:10:34.792608","MEAN_MOTION":13.18687605,"ECCENTRICITY":0.0001326,"INCLINATION":87.9209,"RA_OF_ASC_NODE":347.2117,"ARG_OF_PERICENTER":97.0145,"MEAN_ANOMALY":263.1138,"EPHEMERIS_TYPE":0,"CLASSIFICATION_TYPE":"U","NORAD_CAT_ID":50486,"ELEMENT_SET_NO":999,"REV_AT_EPOCH":21383,"BSTAR":0.0003117,"MEAN_MOTION_DOT":1.36e-06,"MEAN_MOTION_DDOT":0.0},{"OBJECT_NAME":"ONEWEB-0407","OBJECT_ID":"2021-132U","EPOCH":"2026-04-19T02:01:03.895968","MEAN_MOTION":13.18684447,"ECCENTRICITY":0.0001964,"INCLINATION":87.9221,"RA_OF_ASC_NODE":347.2003,"ARG_OF_PERICENTER":79.5185,"MEAN_ANOMALY":280.6168,"EPHEMERIS_TYPE":0,"CLASSIFICATION_TYPE":"U","NORAD_CAT_ID":50487,"ELEMENT_SET_NO":999,"REV_AT_EPOCH":21377,"BSTAR":0.00022084,"MEAN_MOTION_DOT":1e-06,"MEAN_MOTION_DDOT":0.0},{"OBJECT_NAME":"ONEWEB-0409","OBJECT_ID":"2021-132V","EPOCH":"2026-04-19T04:47:43.575360","MEAN_MOTION":13.11417137,"ECCENTRICITY":0.0001575,"INCLINATION":87.8922,"RA_OF_ASC_NODE":32.778,"ARG_OF_PERICENTER":80.6026,"MEAN_ANOMALY":279.528,"EPHEMERIS_TYPE":0,"CLASSIFICATION_TYPE":"U","NORAD_CAT_ID":50488,"ELEMENT_SET_NO":999,"REV_AT_EPOCH":20785,"BSTAR":-0.0013514000000000002,"MEAN_MOTION_DOT":-4.66e-06,"MEAN_MOTION_DDOT":0.0},{"OBJECT_NAME":"ONEWEB-0412","OBJECT_ID":"2021-132W","EPOCH":"2026-04-19T01:44:26.364768","MEAN_MOTION":13.18684936,"ECCENTRICITY":0.000206,"INCLINATION":87.9208,"RA_OF_ASC_NODE":347.2138,"ARG_OF_PERICENTER":86.4374,"MEAN_ANOMALY":273.6994,"EPHEMERIS_TYPE":0,"CLASSIFICATION_TYPE":"U","NORAD_CAT_ID":50489,"ELEMENT_SET_NO":999,"REV_AT_EPOCH":21386,"BSTAR":0.00022321,"MEAN_MOTION_DOT":1.01e-06,"MEAN_MOTION_DDOT":0.0},{"OBJECT_NAME":"ONEWEB-0413","OBJECT_ID":"2021-132X","EPOCH":"2026-04-19T01:51:34.177824","MEAN_MOTION":13.18684782,"ECCENTRICITY":0.0002059,"INCLINATION":87.9206,"RA_OF_ASC_NODE":347.2152,"ARG_OF_PERICENTER":82.6475,"MEAN_ANOMALY":277.4891,"EPHEMERIS_TYPE":0,"CLASSIFICATION_TYPE":"U","NORAD_CAT_ID":50490,"ELEMENT_SET_NO":999,"REV_AT_EPOCH":21380,"BSTAR":0.00021337,"MEAN_MOTION_DOT":9.7e-07,"MEAN_MOTION_DDOT":0.0},{"OBJECT_NAME":"ONEWEB-0414","OBJECT_ID":"2021-132Y","EPOCH":"2026-04-19T01:30:11.469600","MEAN_MOTION":13.18686205,"ECCENTRICITY":0.0001859,"INCLINATION":87.9221,"RA_OF_ASC_NODE":347.1938,"ARG_OF_PERICENTER":86.853,"MEAN_ANOMALY":273.2815,"EPHEMERIS_TYPE":0,"CLASSIFICATION_TYPE":"U","NORAD_CAT_ID":50491,"ELEMENT_SET_NO":999,"REV_AT_EPOCH":21383,"BSTAR":0.0006251200000000001,"MEAN_MOTION_DOT":2.59e-06,"MEAN_MOTION_DDOT":0.0},{"OBJECT_NAME":"ONEWEB-0417","OBJECT_ID":"2021-132Z","EPOCH":"2026-04-19T01:42:03.732192","MEAN_MOTION":13.18684697,"ECCENTRICITY":0.0001569,"INCLINATION":87.9207,"RA_OF_ASC_NODE":347.217,"ARG_OF_PERICENTER":85.5136,"MEAN_ANOMALY":274.6175,"EPHEMERIS_TYPE":0,"CLASSIFICATION_TYPE":"U","NORAD_CAT_ID":50492,"ELEMENT_SET_NO":999,"REV_AT_EPOCH":21381,"BSTAR":0.00041621000000000003,"MEAN_MOTION_DOT":1.77e-06,"MEAN_MOTION_DDOT":0.0},{"OBJECT_NAME":"ONEWEB-0418","OBJECT_ID":"2021-132AA","EPOCH":"2026-04-19T01:56:06.213408","MEAN_MOTION":13.18688021,"ECCENTRICITY":0.0001431,"INCLINATION":87.9218,"RA_OF_ASC_NODE":347.2088,"ARG_OF_PERICENTER":89.5046,"MEAN_ANOMALY":270.625,"EPHEMERIS_TYPE":0,"CLASSIFICATION_TYPE":"U","NORAD_CAT_ID":50493,"ELEMENT_SET_NO":999,"REV_AT_EPOCH":21387,"BSTAR":0.00027803,"MEAN_MOTION_DOT":1.23e-06,"MEAN_MOTION_DDOT":0.0},{"OBJECT_NAME":"ONEWEB-0419","OBJECT_ID":"2021-132AB","EPOCH":"2026-04-19T02:22:25.378176","MEAN_MOTION":13.18686527,"ECCENTRICITY":0.0001481,"INCLINATION":87.9218,"RA_OF_ASC_NODE":347.205,"ARG_OF_PERICENTER":77.364,"MEAN_ANOMALY":282.7658,"EPHEMERIS_TYPE":0,"CLASSIFICATION_TYPE":"U","NORAD_CAT_ID":50494,"ELEMENT_SET_NO":999,"REV_AT_EPOCH":21379,"BSTAR":8.5215e-05,"MEAN_MOTION_DOT":4.6e-07,"MEAN_MOTION_DDOT":0.0},{"OBJECT_NAME":"ONEWEB-0420","OBJECT_ID":"2021-132AC","EPOCH":"2026-04-19T01:32:33.004032","MEAN_MOTION":13.18686495,"ECCENTRICITY":0.0001951,"INCLINATION":87.9213,"RA_OF_ASC_NODE":347.2198,"ARG_OF_PERICENTER":77.6656,"MEAN_ANOMALY":282.4694,"EPHEMERIS_TYPE":0,"CLASSIFICATION_TYPE":"U","NORAD_CAT_ID":50495,"ELEMENT_SET_NO":999,"REV_AT_EPOCH":21378,"BSTAR":-0.00019781,"MEAN_MOTION_DOT":-6.5e-07,"MEAN_MOTION_DDOT":0.0},{"OBJECT_NAME":"ONEWEB-0421","OBJECT_ID":"2021-132AD","EPOCH":"2026-04-19T03:12:20.130048","MEAN_MOTION":13.186857,"ECCENTRICITY":0.0001921,"INCLINATION":87.9214,"RA_OF_ASC_NODE":347.2013,"ARG_OF_PERICENTER":92.969,"MEAN_ANOMALY":267.1662,"EPHEMERIS_TYPE":0,"CLASSIFICATION_TYPE":"U","NORAD_CAT_ID":50496,"ELEMENT_SET_NO":999,"REV_AT_EPOCH":21383,"BSTAR":0.00025526,"MEAN_MOTION_DOT":1.14e-06,"MEAN_MOTION_DDOT":0.0},{"OBJECT_NAME":"ONEWEB-0424","OBJECT_ID":"2021-132AE","EPOCH":"2026-04-19T02:15:18.993312","MEAN_MOTION":13.1868611,"ECCENTRICITY":0.0001507,"INCLINATION":87.9216,"RA_OF_ASC_NODE":347.2052,"ARG_OF_PERICENTER":72.3167,"MEAN_ANOMALY":287.8129,"EPHEMERIS_TYPE":0,"CLASSIFICATION_TYPE":"U","NORAD_CAT_ID":50497,"ELEMENT_SET_NO":999,"REV_AT_EPOCH":21385,"BSTAR":0.00018323000000000002,"MEAN_MOTION_DOT":8.5e-07,"MEAN_MOTION_DDOT":0.0},{"OBJECT_NAME":"ONEWEB-0426","OBJECT_ID":"2021-132AF","EPOCH":"2026-04-19T03:07:31.064160","MEAN_MOTION":13.1869039,"ECCENTRICITY":0.0001683,"INCLINATION":87.9216,"RA_OF_ASC_NODE":347.1899,"ARG_OF_PERICENTER":106.3152,"MEAN_ANOMALY":253.8165,"EPHEMERIS_TYPE":0,"CLASSIFICATION_TYPE":"U","NORAD_CAT_ID":50498,"ELEMENT_SET_NO":999,"REV_AT_EPOCH":21380,"BSTAR":0.00019696,"MEAN_MOTION_DOT":9.1e-07,"MEAN_MOTION_DDOT":0.0},{"OBJECT_NAME":"ONEWEB-0427","OBJECT_ID":"2021-132AG","EPOCH":"2026-04-19T02:12:56.358144","MEAN_MOTION":13.1868428,"ECCENTRICITY":0.0001554,"INCLINATION":87.9217,"RA_OF_ASC_NODE":347.1844,"ARG_OF_PERICENTER":86.8358,"MEAN_ANOMALY":273.2952,"EPHEMERIS_TYPE":0,"CLASSIFICATION_TYPE":"U","NORAD_CAT_ID":50499,"ELEMENT_SET_NO":999,"REV_AT_EPOCH":21382,"BSTAR":0.00022233,"MEAN_MOTION_DOT":1.01e-06,"MEAN_MOTION_DDOT":0.0},{"OBJECT_NAME":"ONEWEB-0429","OBJECT_ID":"2021-132AH","EPOCH":"2026-04-19T01:53:56.899392","MEAN_MOTION":13.18686437,"ECCENTRICITY":0.0001859,"INCLINATION":87.9211,"RA_OF_ASC_NODE":347.2164,"ARG_OF_PERICENTER":79.217,"MEAN_ANOMALY":280.9172,"EPHEMERIS_TYPE":0,"CLASSIFICATION_TYPE":"U","NORAD_CAT_ID":50500,"ELEMENT_SET_NO":999,"REV_AT_EPOCH":21379,"BSTAR":0.00021561,"MEAN_MOTION_DOT":9.8e-07,"MEAN_MOTION_DDOT":0.0},{"OBJECT_NAME":"ONEWEB-0430","OBJECT_ID":"2021-132AJ","EPOCH":"2026-04-19T01:37:17.993568","MEAN_MOTION":13.18689198,"ECCENTRICITY":0.000178,"INCLINATION":87.921,"RA_OF_ASC_NODE":347.2167,"ARG_OF_PERICENTER":73.862,"MEAN_ANOMALY":286.2708,"EPHEMERIS_TYPE":0,"CLASSIFICATION_TYPE":"U","NORAD_CAT_ID":50501,"ELEMENT_SET_NO":999,"REV_AT_EPOCH":21383,"BSTAR":0.00066837,"MEAN_MOTION_DOT":2.76e-06,"MEAN_MOTION_DDOT":0.0}]